IRIDIUM 7               
1 24793U 97020B   24136.11171126  .00001170  00000+0  40275-3 0  9998
2 24793  86.3964 343.6912 0002194  80.6375 279.5069 14.35207449415003
IRIDIUM 5               
1 24795U 97020D   24135.65296210  .00011435  00000+0  10901-2 0  9997
2 24795  86.3906 266.3386 0124406 121.1899 240.1593 14.87488863426084
IRIDIUM 4               
1 24796U 97020E   24135.93082851  .00001101  00000+0  37168-3 0  9997
2 24796  86.3956 340.9094 0002301  85.9753 274.1707 14.36130527415290
IRIDIUM 914             
1 24836U 97030A   24136.12000187  .00001371  00000+0  42948-3 0  9998
2 24836  86.3948 350.6010 0003995  90.3079 269.8578 14.39986710411922
IRIDIUM 16              
1 24841U 97030F   24136.39539628  .00001320  00000+0  43120-3 0  9997
2 24841  86.4067  12.3689 0000984  15.0228 345.0999 14.37882090410084
IRIDIUM 911             
1 24842U 97030G   24136.37970307  .00001466  00000+0  40149-3 0  9998
2 24842  86.4492  11.5300 0013965 353.2538   6.8474 14.46514643417535
IRIDIUM 17              
1 24870U 97034B   24136.20462119  .00001393  00000+0  46402-3 0  9999
2 24870  86.3990  42.0422 0001150 127.8713 232.2589 14.36975005406414
IRIDIUM 920             
1 24871U 97034C   24136.43719723  .00001330  00000+0  41026-3 0  9999
2 24871  86.4010  22.1063 0010231 323.5986  36.4517 14.40695317409559
